STARLINK-33904          
1 63887U 25094Z   26089.00002314  .00000667  00000+0  63717-4 0  9993
2 63887  70.0017 183.0930 0003811 269.0917 293.0537 14.98324033  5573
STARLINK-33981          
1 63888U 25094AA  26089.00011817  .00007857  00000+0  66526-3 0  9990
2 63888  70.0031 183.3163 0003357 269.3126  90.7649 14.98344834 50242
STARLINK-33738          
1 63889U 25094AB  26088.98759368  .00005626  00000+0  47876-3 0  9996
2 63889  70.0038 183.2489 0003079 272.1850  87.8957 14.98340550 50461
STARLINK-34116          
1 63890U 25095A   26089.20618961  .00026414  00000+0  96521-3 0  9997
2 63890  43.0049  60.5223 0000767 147.1189 212.9711 15.27605393 50927
STARLINK-34123          
1 63891U 25095B   26089.22032535  .00026472  00000+0  96640-3 0  9993
2 63891  43.0012  60.6271 0000771 270.5890  89.4873 15.27636043 50929
STARLINK-33972          
1 63893U 25095D   26088.21768719  .00040571  00000+0  14743-2 0  9992
2 63893  43.0014  65.9991 0000535 246.7784 113.3011 15.27612991 50775
STARLINK-33973          
1 63894U 25095E   26088.96634082  .00026911  00000+0  98331-3 0  9998
2 63894  43.0013  61.2919 0000169 121.3022 238.7847 15.27598849 50897
STARLINK-34119          
1 63895U 25095F   26089.21261403  .00033962  00000+0  12374-2 0  9997
2 63895  43.0004  60.5680 0001239 275.8001  84.2709 15.27596099 50926
STARLINK-34143          
1 63896U 25095G   26088.99075453  .00035800  00000+0  13033-2 0  9996
2 63896  43.0014  61.4720 0001324 249.9141 110.1568 15.27602922 50896
STARLINK-33957          
1 63897U 25095H   26089.21646884  .00034917  00000+0  12720-2 0  9995
2 63897  42.9998  60.5957 0000843 269.3742  90.7013 15.27589339 50913
STARLINK-34120          
1 63898U 25095J   26089.22402911  .00025725  00000+0  94072-3 0  9996
2 63898  43.0027  59.7865 0001209 267.2773  92.7940 15.27593649 50937
STARLINK-34134          
1 63899U 25095K   26088.94078840  .00027008  00000+0  98683-3 0  9993
2 63899  42.9982  61.9653 0000468 211.0527 149.0297 15.27597935 50883
STARLINK-34118          
1 63900U 25095L   26089.20874822  .00011455  00000+0  42502-3 0  9998
2 63900  43.0010  60.5367 0000816 247.3227 112.7538 15.27590722 50920
STARLINK-34125          
1 63901U 25095M   26089.19462368  .00024865  00000+0  90952-3 0  9996
2 63901  43.0003  60.4231 0001485 252.8825 107.1864 15.27598651 50918
STARLINK-33955          
1 63902U 25095N   26088.96891115  .00037172  00000+0  13524-2 0  9991
2 63902  43.0030  61.3091 0000336 114.0024 246.0863 15.27606680 50887
STARLINK-34097          
1 63903U 25095P   26089.18434484  .00036023  00000+0  13114-2 0  9998
2 63903  43.0038  60.3461 0001373 271.2337  88.8357 15.27598519 50916
STARLINK-34092          
1 63904U 25095Q   26089.21389796  .00036669  00000+0  13348-2 0  9993
2 63904  43.0010  60.5759 0001037 266.4698  93.6035 15.27595003 50914
