[{"OBJECT_NAME":"STARLINK-33904","OBJECT_ID":"2025-094Z","EPOCH":"2026-03-30T00:00:01.999296","MEAN_MOTION":14.98324033,"ECCENTRICITY":0.0003811,"INCLINATION":70.0017,"RA_OF_ASC_NODE":183.093,"ARG_OF_PERICENTER":269.0917,"MEAN_ANOMALY":293.0537,"EPHEMERIS_TYPE":0,"CLASSIFICATION_TYPE":"U","NORAD_CAT_ID":63887,"ELEMENT_SET_NO":999,"REV_AT_EPOCH":557,"BSTAR":6.3717e-5,"MEAN_MOTION_DOT":6.67e-6,"MEAN_MOTION_DDOT":0},{"OBJECT_NAME":"STARLINK-33981","OBJECT_ID":"2025-094AA","EPOCH":"2026-03-30T00:00:10.209888","MEAN_MOTION":14.98344834,"ECCENTRICITY":0.0003357,"INCLINATION":70.0031,"RA_OF_ASC_NODE":183.3163,"ARG_OF_PERICENTER":269.3126,"MEAN_ANOMALY":90.7649,"EPHEMERIS_TYPE":0,"CLASSIFICATION_TYPE":"U","NORAD_CAT_ID":63888,"ELEMENT_SET_NO":999,"REV_AT_EPOCH":5024,"BSTAR":0.00066526,"MEAN_MOTION_DOT":7.857e-5,"MEAN_MOTION_DDOT":0},{"OBJECT_NAME":"STARLINK-33738","OBJECT_ID":"2025-094AB","EPOCH":"2026-03-29T23:42:08.093952","MEAN_MOTION":14.9834055,"ECCENTRICITY":0.0003079,"INCLINATION":70.0038,"RA_OF_ASC_NODE":183.2489,"ARG_OF_PERICENTER":272.185,"MEAN_ANOMALY":87.8957,"EPHEMERIS_TYPE":0,"CLASSIFICATION_TYPE":"U","NORAD_CAT_ID":63889,"ELEMENT_SET_NO":999,"REV_AT_EPOCH":5046,"BSTAR":0.00047876,"MEAN_MOTION_DOT":5.626e-5,"MEAN_MOTION_DDOT":0},{"OBJECT_NAME":"STARLINK-34116","OBJECT_ID":"2025-095A","EPOCH":"2026-03-30T04:56:54.782304","MEAN_MOTION":15.27605393,"ECCENTRICITY":7.67e-5,"INCLINATION":43.0049,"RA_OF_ASC_NODE":60.5223,"ARG_OF_PERICENTER":147.1189,"MEAN_ANOMALY":212.9711,"EPHEMERIS_TYPE":0,"CLASSIFICATION_TYPE":"U","NORAD_CAT_ID":63890,"ELEMENT_SET_NO":999,"REV_AT_EPOCH":5092,"BSTAR":0.00096521,"MEAN_MOTION_DOT":0.00026414,"MEAN_MOTION_DDOT":0},{"OBJECT_NAME":"STARLINK-34123","OBJECT_ID":"2025-095B","EPOCH":"2026-03-30T05:17:16.110240","MEAN_MOTION":15.27636043,"ECCENTRICITY":7.71e-5,"INCLINATION":43.0012,"RA_OF_ASC_NODE":60.6271,"ARG_OF_PERICENTER":270.589,"MEAN_ANOMALY":89.4873,"EPHEMERIS_TYPE":0,"CLASSIFICATION_TYPE":"U","NORAD_CAT_ID":63891,"ELEMENT_SET_NO":999,"REV_AT_EPOCH":5092,"BSTAR":0.0009664,"MEAN_MOTION_DOT":0.00026472,"MEAN_MOTION_DDOT":0},{"OBJECT_NAME":"STARLINK-33972","OBJECT_ID":"2025-095D","EPOCH":"2026-03-29T05:13:28.173216","MEAN_MOTION":15.27612991,"ECCENTRICITY":5.35e-5,"INCLINATION":43.0014,"RA_OF_ASC_NODE":65.9991,"ARG_OF_PERICENTER":246.7784,"MEAN_ANOMALY":113.3011,"EPHEMERIS_TYPE":0,"CLASSIFICATION_TYPE":"U","NORAD_CAT_ID":63893,"ELEMENT_SET_NO":999,"REV_AT_EPOCH":5077,"BSTAR":0.0014743,"MEAN_MOTION_DOT":0.00040571,"MEAN_MOTION_DDOT":0},{"OBJECT_NAME":"STARLINK-33973","OBJECT_ID":"2025-095E","EPOCH":"2026-03-29T23:11:31.846848","MEAN_MOTION":15.27598849,"ECCENTRICITY":1.69e-5,"INCLINATION":43.0013,"RA_OF_ASC_NODE":61.2919,"ARG_OF_PERICENTER":121.3022,"MEAN_ANOMALY":238.7847,"EPHEMERIS_TYPE":0,"CLASSIFICATION_TYPE":"U","NORAD_CAT_ID":63894,"ELEMENT_SET_NO":999,"REV_AT_EPOCH":5089,"BSTAR":0.00098331,"MEAN_MOTION_DOT":0.00026911,"MEAN_MOTION_DDOT":0},{"OBJECT_NAME":"STARLINK-34119","OBJECT_ID":"2025-095F","EPOCH":"2026-03-30T05:06:09.852192","MEAN_MOTION":15.27596099,"ECCENTRICITY":0.0001239,"INCLINATION":43.0004,"RA_OF_ASC_NODE":60.568,"ARG_OF_PERICENTER":275.8001,"MEAN_ANOMALY":84.2709,"EPHEMERIS_TYPE":0,"CLASSIFICATION_TYPE":"U","NORAD_CAT_ID":63895,"ELEMENT_SET_NO":999,"REV_AT_EPOCH":5092,"BSTAR":0.0012374,"MEAN_MOTION_DOT":0.00033962,"MEAN_MOTION_DDOT":0},{"OBJECT_NAME":"STARLINK-34143","OBJECT_ID":"2025-095G","EPOCH":"2026-03-29T23:46:41.191392","MEAN_MOTION":15.27602922,"ECCENTRICITY":0.0001324,"INCLINATION":43.0014,"RA_OF_ASC_NODE":61.472,"ARG_OF_PERICENTER":249.9141,"MEAN_ANOMALY":110.1568,"EPHEMERIS_TYPE":0,"CLASSIFICATION_TYPE":"U","NORAD_CAT_ID":63896,"ELEMENT_SET_NO":999,"REV_AT_EPOCH":5089,"BSTAR":0.0013033,"MEAN_MOTION_DOT":0.000358,"MEAN_MOTION_DDOT":0},{"OBJECT_NAME":"STARLINK-33957","OBJECT_ID":"2025-095H","EPOCH":"2026-03-30T05:11:42.907776","MEAN_MOTION":15.27589339,"ECCENTRICITY":8.43e-5,"INCLINATION":42.9998,"RA_OF_ASC_NODE":60.5957,"ARG_OF_PERICENTER":269.3742,"MEAN_ANOMALY":90.7013,"EPHEMERIS_TYPE":0,"CLASSIFICATION_TYPE":"U","NORAD_CAT_ID":63897,"ELEMENT_SET_NO":999,"REV_AT_EPOCH":5091,"BSTAR":0.001272,"MEAN_MOTION_DOT":0.00034917,"MEAN_MOTION_DDOT":0},{"OBJECT_NAME":"STARLINK-34120","OBJECT_ID":"2025-095J","EPOCH":"2026-03-30T05:22:36.115104","MEAN_MOTION":15.27593649,"ECCENTRICITY":0.0001209,"INCLINATION":43.0027,"RA_OF_ASC_NODE":59.7865,"ARG_OF_PERICENTER":267.2773,"MEAN_ANOMALY":92.794,"EPHEMERIS_TYPE":0,"CLASSIFICATION_TYPE":"U","NORAD_CAT_ID":63898,"ELEMENT_SET_NO":999,"REV_AT_EPOCH":5093,"BSTAR":0.00094072,"MEAN_MOTION_DOT":0.00025725,"MEAN_MOTION_DDOT":0},{"OBJECT_NAME":"STARLINK-34134","OBJECT_ID":"2025-095K","EPOCH":"2026-03-29T22:34:44.117760","MEAN_MOTION":15.27597935,"ECCENTRICITY":4.68e-5,"INCLINATION":42.9982,"RA_OF_ASC_NODE":61.9653,"ARG_OF_PERICENTER":211.0527,"MEAN_ANOMALY":149.0297,"EPHEMERIS_TYPE":0,"CLASSIFICATION_TYPE":"U","NORAD_CAT_ID":63899,"ELEMENT_SET_NO":999,"REV_AT_EPOCH":5088,"BSTAR":0.00098683,"MEAN_MOTION_DOT":0.00027008,"MEAN_MOTION_DDOT":0},{"OBJECT_NAME":"STARLINK-34118","OBJECT_ID":"2025-095L","EPOCH":"2026-03-30T05:00:35.846208","MEAN_MOTION":15.27590722,"ECCENTRICITY":8.16e-5,"INCLINATION":43.001,"RA_OF_ASC_NODE":60.5367,"ARG_OF_PERICENTER":247.3227,"MEAN_ANOMALY":112.7538,"EPHEMERIS_TYPE":0,"CLASSIFICATION_TYPE":"U","NORAD_CAT_ID":63900,"ELEMENT_SET_NO":999,"REV_AT_EPOCH":5092,"BSTAR":0.00042502,"MEAN_MOTION_DOT":0.00011455,"MEAN_MOTION_DDOT":0},{"OBJECT_NAME":"STARLINK-34125","OBJECT_ID":"2025-095M","EPOCH":"2026-03-30T04:40:15.485952","MEAN_MOTION":15.27598651,"ECCENTRICITY":0.0001485,"INCLINATION":43.0003,"RA_OF_ASC_NODE":60.4231,"ARG_OF_PERICENTER":252.8825,"MEAN_ANOMALY":107.1864,"EPHEMERIS_TYPE":0,"CLASSIFICATION_TYPE":"U","NORAD_CAT_ID":63901,"ELEMENT_SET_NO":999,"REV_AT_EPOCH":5091,"BSTAR":0.00090952,"MEAN_MOTION_DOT":0.00024865,"MEAN_MOTION_DDOT":0},{"OBJECT_NAME":"STARLINK-33955","OBJECT_ID":"2025-095N","EPOCH":"2026-03-29T23:15:13.923360","MEAN_MOTION":15.2760668,"ECCENTRICITY":3.36e-5,"INCLINATION":43.003,"RA_OF_ASC_NODE":61.3091,"ARG_OF_PERICENTER":114.0024,"MEAN_ANOMALY":246.0863,"EPHEMERIS_TYPE":0,"CLASSIFICATION_TYPE":"U","NORAD_CAT_ID":63902,"ELEMENT_SET_NO":999,"REV_AT_EPOCH":5088,"BSTAR":0.0013524,"MEAN_MOTION_DOT":0.00037172,"MEAN_MOTION_DDOT":0},{"OBJECT_NAME":"STARLINK-34097","OBJECT_ID":"2025-095P","EPOCH":"2026-03-30T04:25:27.394176","MEAN_MOTION":15.27598519,"ECCENTRICITY":0.0001373,"INCLINATION":43.0038,"RA_OF_ASC_NODE":60.3461,"ARG_OF_PERICENTER":271.2337,"MEAN_ANOMALY":88.8357,"EPHEMERIS_TYPE":0,"CLASSIFICATION_TYPE":"U","NORAD_CAT_ID":63903,"ELEMENT_SET_NO":999,"REV_AT_EPOCH":5091,"BSTAR":0.0013114,"MEAN_MOTION_DOT":0.00036023,"MEAN_MOTION_DDOT":0},{"OBJECT_NAME":"STARLINK-34092","OBJECT_ID":"2025-095Q","EPOCH":"2026-03-30T05:08:00.783744","MEAN_MOTION":15.27595003,"ECCENTRICITY":0.0001037,"INCLINATION":43.001,"RA_OF_ASC_NODE":60.5759,"ARG_OF_PERICENTER":266.4698,"MEAN_ANOMALY":93.6035,"EPHEMERIS_TYPE":0,"CLASSIFICATION_TYPE":"U","NORAD_CAT_ID":63904,"ELEMENT_SET_NO":999,"REV_AT_EPOCH":5091,"BSTAR":0.0013348,"MEAN_MOTION_DOT":0.00036669,"MEAN_MOTION_DDOT":0}]
